ATLAS CENTAUR 2         
1 00694U 63047A   26110.04308412  .00002699  00000+0  32066-3 0  9996
2 00694  30.3533 324.5074 0546728  84.8015 281.4711 14.12262428137479
THOR AGENA D R/B        
1 00733U 64002A   26110.31620536  .00000105  00000+0  54515-4 0  9990
2 00733  99.1195 125.9194 0033671 136.1172 224.2695 14.34040651244267
SL-3 R/B                
1 00877U 64053B   26109.54667581  .00000108  00000+0  45231-4 0  9997
2 00877  65.0768 211.4469 0080979 279.4056  79.7896 14.61395927272766
SL-8 R/B                
1 02802U 67045B   26110.16505627  .00000169  00000+0  54671-4 0  9998
2 02802  74.0096 270.6252 0065189 268.0213  91.3478 14.45651650 95019
SL-8 R/B                
1 03230U 68040B   26110.29981365  .00001793  00000+0  13374-3 0  9999
2 03230  74.0303 228.6463 0023741  35.3651 324.9107 15.03530100 96265
OAO 2                   
1 03597U 68110A   26110.10629822  .00000143  00000+0  43635-4 0  9992
2 03597  34.9944  33.9753 0005584 176.7562 183.3165 14.47329101 25102
ISIS 1                  
1 03669U 69009A   26110.04815223  .00000071  00000+0  43639-4 0  9999
2 03669  88.4460 150.7876 1707275   5.7160 356.0881 11.30423376353202
SERT 2                  
1 04327U 70009A   26110.32438970  .00000040  00000+0  11056-3 0  9997
2 04327  99.2812  51.1523 0005748  63.0072 102.1169 13.58735053785547
SL-3 R/B                
1 05118U 71028B   26110.20523717  .00029406  00000+0  30016-3 0  9993
2 05118  81.2369   0.6176 0016589 128.8662 231.4077 15.64725105995157
ASTEX 1                 
1 05560U 71089A   26110.20576695  .00000310  00000+0  79011-4 0  9996
2 05560  92.7057 165.1700 0013594 309.8720  50.1289 14.50808346868320
SL-8 R/B                
1 05730U 71119B   26110.25266762  .00006813  00000+0  35543-3 0  9990
2 05730  73.8843  97.9814 0545527  55.8168 309.3463 14.38555497661461
OAO 3 (COPERNICUS)      
1 06153U 72065A   26110.26237721  .00000190  00000+0  43301-4 0  9999
2 06153  35.0060  60.4486 0006309 146.0579 359.5350 14.60027881852270
ATLAS CENTAUR R/B       
1 06155U 72065B   26110.24512705  .00000809  00000+0  11316-3 0  9994
2 06155  35.0018  62.1961 0033445 358.8160   1.2458 14.77796502847413
SL-8 R/B                
1 08459U 75112B   26110.23828246  .00000036  00000+0  20458-4 0  9998
2 08459  74.0596 302.4819 0015225  20.0443 340.1306 14.38223801637841
SL-3 R/B                
1 10114U 77057B   26110.20537358  .00008309  00000+0  16857-3 0  9995
2 10114  97.5816 284.0032 0008283 128.7077 231.4914 15.46605958674748
SEASAT 1                
1 10967U 78064A   26110.27561797  .00000177  00000+0  87978-4 0  9999
2 10967 108.0077 212.7521 0002805 263.7679  96.3147 14.46195064512528
SL-14 R/B               
1 11267U 79011B   26110.23010125  .00000442  00000+0  41079-4 0  9993
2 11267  82.5245  57.1446 0014308 280.0447  79.9158 14.91961138534973
