[{"OBJECT_NAME":"ATLAS CENTAUR 2","OBJECT_ID":"1963-047A","EPOCH":"2026-04-20T01:02:02.467968","MEAN_MOTION":14.12262428,"ECCENTRICITY":0.05467289,"INCLINATION":30.3533,"RA_OF_ASC_NODE":324.5074,"ARG_OF_PERICENTER":84.8015,"MEAN_ANOMALY":281.4711,"EPHEMERIS_TYPE":0,"CLASSIFICATION_TYPE":"U","NORAD_CAT_ID":694,"ELEMENT_SET_NO":999,"REV_AT_EPOCH":13747,"BSTAR":0.00032066035,"MEAN_MOTION_DOT":2.699e-5,"MEAN_MOTION_DDOT":0},{"OBJECT_NAME":"THOR AGENA D R/B","OBJECT_ID":"1964-002A","EPOCH":"2026-04-20T07:35:20.143104","MEAN_MOTION":14.34040651,"ECCENTRICITY":0.00336711,"INCLINATION":99.1195,"RA_OF_ASC_NODE":125.9194,"ARG_OF_PERICENTER":136.1172,"MEAN_ANOMALY":224.2695,"EPHEMERIS_TYPE":0,"CLASSIFICATION_TYPE":"U","NORAD_CAT_ID":733,"ELEMENT_SET_NO":999,"REV_AT_EPOCH":24426,"BSTAR":5.4515476e-5,"MEAN_MOTION_DOT":1.05e-6,"MEAN_MOTION_DDOT":0},{"OBJECT_NAME":"SL-3 R/B","OBJECT_ID":"1964-053B","EPOCH":"2026-04-19T13:07:12.789984","MEAN_MOTION":14.61395927,"ECCENTRICITY":0.00809795,"INCLINATION":65.0768,"RA_OF_ASC_NODE":211.4469,"ARG_OF_PERICENTER":279.4056,"MEAN_ANOMALY":79.7896,"EPHEMERIS_TYPE":0,"CLASSIFICATION_TYPE":"U","NORAD_CAT_ID":877,"ELEMENT_SET_NO":999,"REV_AT_EPOCH":27276,"BSTAR":4.5231486e-5,"MEAN_MOTION_DOT":1.08e-6,"MEAN_MOTION_DDOT":0},{"OBJECT_NAME":"SL-8 R/B","OBJECT_ID":"1967-045B","EPOCH":"2026-04-20T03:57:40.861728","MEAN_MOTION":14.4565165,"ECCENTRICITY":0.00651895,"INCLINATION":74.0096,"RA_OF_ASC_NODE":270.6252,"ARG_OF_PERICENTER":268.0213,"MEAN_ANOMALY":91.3478,"EPHEMERIS_TYPE":0,"CLASSIFICATION_TYPE":"U","NORAD_CAT_ID":2802,"ELEMENT_SET_NO":999,"REV_AT_EPOCH":9501,"BSTAR":5.4670872e-5,"MEAN_MOTION_DOT":1.69e-6,"MEAN_MOTION_DDOT":0},{"OBJECT_NAME":"SL-8 R/B","OBJECT_ID":"1968-040B","EPOCH":"2026-04-20T07:11:43.899360","MEAN_MOTION":15.035301,"ECCENTRICITY":0.00237415,"INCLINATION":74.0303,"RA_OF_ASC_NODE":228.6463,"ARG_OF_PERICENTER":35.3651,"MEAN_ANOMALY":324.9107,"EPHEMERIS_TYPE":0,"CLASSIFICATION_TYPE":"U","NORAD_CAT_ID":3230,"ELEMENT_SET_NO":999,"REV_AT_EPOCH":9626,"BSTAR":0.00013373924,"MEAN_MOTION_DOT":1.793e-5,"MEAN_MOTION_DDOT":0},{"OBJECT_NAME":"OAO 2","OBJECT_ID":"1968-110A","EPOCH":"2026-04-20T02:33:04.166208","MEAN_MOTION":14.47329101,"ECCENTRICITY":0.00055848,"INCLINATION":34.9944,"RA_OF_ASC_NODE":33.9753,"ARG_OF_PERICENTER":176.7562,"MEAN_ANOMALY":183.3165,"EPHEMERIS_TYPE":0,"CLASSIFICATION_TYPE":"U","NORAD_CAT_ID":3597,"ELEMENT_SET_NO":999,"REV_AT_EPOCH":2510,"BSTAR":4.3634732e-5,"MEAN_MOTION_DOT":1.43e-6,"MEAN_MOTION_DDOT":0},{"OBJECT_NAME":"ISIS 1","OBJECT_ID":"1969-009A","EPOCH":"2026-04-20T01:09:20.352672","MEAN_MOTION":11.30423376,"ECCENTRICITY":0.17072753,"INCLINATION":88.446,"RA_OF_ASC_NODE":150.7876,"ARG_OF_PERICENTER":5.716,"MEAN_ANOMALY":356.0881,"EPHEMERIS_TYPE":0,"CLASSIFICATION_TYPE":"U","NORAD_CAT_ID":3669,"ELEMENT_SET_NO":999,"REV_AT_EPOCH":35320,"BSTAR":4.3638821e-5,"MEAN_MOTION_DOT":7.1e-7,"MEAN_MOTION_DDOT":0},{"OBJECT_NAME":"SERT 2","OBJECT_ID":"1970-009A","EPOCH":"2026-04-20T07:47:07.270080","MEAN_MOTION":13.58735053,"ECCENTRICITY":0.00057489,"INCLINATION":99.2812,"RA_OF_ASC_NODE":51.1523,"ARG_OF_PERICENTER":63.0072,"MEAN_ANOMALY":102.1169,"EPHEMERIS_TYPE":0,"CLASSIFICATION_TYPE":"U","NORAD_CAT_ID":4327,"ELEMENT_SET_NO":999,"REV_AT_EPOCH":78554,"BSTAR":0.00011055661,"MEAN_MOTION_DOT":4.0e-7,"MEAN_MOTION_DDOT":0},{"OBJECT_NAME":"SL-3 R/B","OBJECT_ID":"1971-028B","EPOCH":"2026-04-20T04:55:32.491488","MEAN_MOTION":15.64725105,"ECCENTRICITY":0.00165895,"INCLINATION":81.2369,"RA_OF_ASC_NODE":0.6176,"ARG_OF_PERICENTER":128.8662,"MEAN_ANOMALY":231.4077,"EPHEMERIS_TYPE":0,"CLASSIFICATION_TYPE":"U","NORAD_CAT_ID":5118,"ELEMENT_SET_NO":999,"REV_AT_EPOCH":99515,"BSTAR":0.00030015702,"MEAN_MOTION_DOT":0.00029406,"MEAN_MOTION_DDOT":0},{"OBJECT_NAME":"ASTEX 1","OBJECT_ID":"1971-089A","EPOCH":"2026-04-20T04:56:18.264480","MEAN_MOTION":14.50808346,"ECCENTRICITY":0.00135941,"INCLINATION":92.7057,"RA_OF_ASC_NODE":165.17,"ARG_OF_PERICENTER":309.872,"MEAN_ANOMALY":50.1289,"EPHEMERIS_TYPE":0,"CLASSIFICATION_TYPE":"U","NORAD_CAT_ID":5560,"ELEMENT_SET_NO":999,"REV_AT_EPOCH":86832,"BSTAR":7.9010754e-5,"MEAN_MOTION_DOT":3.1e-6,"MEAN_MOTION_DDOT":0},{"OBJECT_NAME":"SL-8 R/B","OBJECT_ID":"1971-119B","EPOCH":"2026-04-20T06:03:50.482368","MEAN_MOTION":14.38555497,"ECCENTRICITY":0.05455278,"INCLINATION":73.8843,"RA_OF_ASC_NODE":97.9814,"ARG_OF_PERICENTER":55.8168,"MEAN_ANOMALY":309.3463,"EPHEMERIS_TYPE":0,"CLASSIFICATION_TYPE":"U","NORAD_CAT_ID":5730,"ELEMENT_SET_NO":999,"REV_AT_EPOCH":66146,"BSTAR":0.00035543389,"MEAN_MOTION_DOT":6.813e-5,"MEAN_MOTION_DDOT":0},{"OBJECT_NAME":"OAO 3 (COPERNICUS)","OBJECT_ID":"1972-065A","EPOCH":"2026-04-20T06:17:49.390944","MEAN_MOTION":14.60027881,"ECCENTRICITY":0.00063094,"INCLINATION":35.006,"RA_OF_ASC_NODE":60.4486,"ARG_OF_PERICENTER":146.0579,"MEAN_ANOMALY":359.535,"EPHEMERIS_TYPE":0,"CLASSIFICATION_TYPE":"U","NORAD_CAT_ID":6153,"ELEMENT_SET_NO":999,"REV_AT_EPOCH":85227,"BSTAR":4.3300637e-5,"MEAN_MOTION_DOT":1.9e-6,"MEAN_MOTION_DDOT":0},{"OBJECT_NAME":"ATLAS CENTAUR R/B","OBJECT_ID":"1972-065B","EPOCH":"2026-04-20T05:52:58.977120","MEAN_MOTION":14.77796502,"ECCENTRICITY":0.00334455,"INCLINATION":35.0018,"RA_OF_ASC_NODE":62.1961,"ARG_OF_PERICENTER":358.816,"MEAN_ANOMALY":1.2458,"EPHEMERIS_TYPE":0,"CLASSIFICATION_TYPE":"U","NORAD_CAT_ID":6155,"ELEMENT_SET_NO":999,"REV_AT_EPOCH":84741,"BSTAR":0.00011315818,"MEAN_MOTION_DOT":8.09e-6,"MEAN_MOTION_DDOT":0},{"OBJECT_NAME":"SL-8 R/B","OBJECT_ID":"1975-112B","EPOCH":"2026-04-20T05:43:07.604544","MEAN_MOTION":14.38223801,"ECCENTRICITY":0.00152255,"INCLINATION":74.0596,"RA_OF_ASC_NODE":302.4819,"ARG_OF_PERICENTER":20.0443,"MEAN_ANOMALY":340.1306,"EPHEMERIS_TYPE":0,"CLASSIFICATION_TYPE":"U","NORAD_CAT_ID":8459,"ELEMENT_SET_NO":999,"REV_AT_EPOCH":63784,"BSTAR":2.0457606e-5,"MEAN_MOTION_DOT":3.6e-7,"MEAN_MOTION_DDOT":0},{"OBJECT_NAME":"SL-3 R/B","OBJECT_ID":"1977-057B","EPOCH":"2026-04-20T04:55:44.277312","MEAN_MOTION":15.46605958,"ECCENTRICITY":0.00082835,"INCLINATION":97.5816,"RA_OF_ASC_NODE":284.0032,"ARG_OF_PERICENTER":128.7077,"MEAN_ANOMALY":231.4914,"EPHEMERIS_TYPE":0,"CLASSIFICATION_TYPE":"U","NORAD_CAT_ID":10114,"ELEMENT_SET_NO":999,"REV_AT_EPOCH":67474,"BSTAR":0.00016857442,"MEAN_MOTION_DOT":8.309e-5,"MEAN_MOTION_DDOT":0},{"OBJECT_NAME":"SEASAT 1","OBJECT_ID":"1978-064A","EPOCH":"2026-04-20T06:36:53.392608","MEAN_MOTION":14.46195064,"ECCENTRICITY":0.00028057,"INCLINATION":108.0077,"RA_OF_ASC_NODE":212.7521,"ARG_OF_PERICENTER":263.7679,"MEAN_ANOMALY":96.3147,"EPHEMERIS_TYPE":0,"CLASSIFICATION_TYPE":"U","NORAD_CAT_ID":10967,"ELEMENT_SET_NO":999,"REV_AT_EPOCH":51252,"BSTAR":8.7978099e-5,"MEAN_MOTION_DOT":1.77e-6,"MEAN_MOTION_DDOT":0},{"OBJECT_NAME":"SL-14 R/B","OBJECT_ID":"1979-011B","EPOCH":"2026-04-20T05:31:20.748000","MEAN_MOTION":14.91961138,"ECCENTRICITY":0.00143085,"INCLINATION":82.5245,"RA_OF_ASC_NODE":57.1446,"ARG_OF_PERICENTER":280.0447,"MEAN_ANOMALY":79.9158,"EPHEMERIS_TYPE":0,"CLASSIFICATION_TYPE":"U","NORAD_CAT_ID":11267,"ELEMENT_SET_NO":999,"REV_AT_EPOCH":53497,"BSTAR":4.1078772e-5,"MEAN_MOTION_DOT":4.42e-6,"MEAN_MOTION_DDOT":0}]
